[{"OBJECT_NAME":"AEROCUBE 6B","OBJECT_ID":"2014-033AN","EPOCH":"2026-04-25T10:23:50.406720","MEAN_MOTION":14.98908569,"ECCENTRICITY":0.0036989,"INCLINATION":97.7194,"RA_OF_ASC_NODE":282.6659,"ARG_OF_PERICENTER":181.4357,"MEAN_ANOMALY":178.6766,"EPHEMERIS_TYPE":0,"CLASSIFICATION_TYPE":"U","NORAD_CAT_ID":40046,"ELEMENT_SET_NO":999,"REV_AT_EPOCH":63885,"BSTAR":0.00058805,"MEAN_MOTION_DOT":7.152e-5,"MEAN_MOTION_DDOT":0},{"OBJECT_NAME":"CANX-4","OBJECT_ID":"2014-034C","EPOCH":"2026-04-25T14:17:49.986816","MEAN_MOTION":14.81165309,"ECCENTRICITY":0.0012818,"INCLINATION":98.3195,"RA_OF_ASC_NODE":348.9616,"ARG_OF_PERICENTER":174.3382,"MEAN_ANOMALY":185.7976,"EPHEMERIS_TYPE":0,"CLASSIFICATION_TYPE":"U","NORAD_CAT_ID":40055,"ELEMENT_SET_NO":999,"REV_AT_EPOCH":63674,"BSTAR":0.00010715,"MEAN_MOTION_DOT":7.77e-6,"MEAN_MOTION_DDOT":0},{"OBJECT_NAME":"CANX-5","OBJECT_ID":"2014-034D","EPOCH":"2026-04-25T14:16:26.965920","MEAN_MOTION":14.81182288,"ECCENTRICITY":0.0012807,"INCLINATION":98.3197,"RA_OF_ASC_NODE":349.001,"ARG_OF_PERICENTER":174.5873,"MEAN_ANOMALY":185.5479,"EPHEMERIS_TYPE":0,"CLASSIFICATION_TYPE":"U","NORAD_CAT_ID":40056,"ELEMENT_SET_NO":999,"REV_AT_EPOCH":62755,"BSTAR":0.00010686,"MEAN_MOTION_DOT":7.75e-6,"MEAN_MOTION_DDOT":0},{"OBJECT_NAME":"UKUBE-1","OBJECT_ID":"2014-037F","EPOCH":"2026-04-25T17:27:27.389376","MEAN_MOTION":15.12701204,"ECCENTRICITY":0.0001899,"INCLINATION":98.4249,"RA_OF_ASC_NODE":113.5262,"ARG_OF_PERICENTER":46.4173,"MEAN_ANOMALY":313.7212,"EPHEMERIS_TYPE":0,"CLASSIFICATION_TYPE":"U","NORAD_CAT_ID":40074,"ELEMENT_SET_NO":999,"REV_AT_EPOCH":64062,"BSTAR":0.00051855,"MEAN_MOTION_DOT":9.007e-5,"MEAN_MOTION_DDOT":0},{"OBJECT_NAME":"BRITE-PL2 (HEWELIUSZ)","OBJECT_ID":"2014-049B","EPOCH":"2026-04-25T19:32:53.697696","MEAN_MOTION":14.94395026,"ECCENTRICITY":0.0012694,"INCLINATION":97.9036,"RA_OF_ASC_NODE":227.4367,"ARG_OF_PERICENTER":284.7952,"MEAN_ANOMALY":75.1861,"EPHEMERIS_TYPE":0,"CLASSIFICATION_TYPE":"U","NORAD_CAT_ID":40119,"ELEMENT_SET_NO":999,"REV_AT_EPOCH":63362,"BSTAR":0.00016269,"MEAN_MOTION_DOT":1.694e-5,"MEAN_MOTION_DDOT":0},{"OBJECT_NAME":"AEROCUBE 5C","OBJECT_ID":"2015-058B","EPOCH":"2026-04-25T20:44:27.388032","MEAN_MOTION":14.91135641,"ECCENTRICITY":0.0129611,"INCLINATION":64.7675,"RA_OF_ASC_NODE":65.3238,"ARG_OF_PERICENTER":83.8033,"MEAN_ANOMALY":277.7826,"EPHEMERIS_TYPE":0,"CLASSIFICATION_TYPE":"U","NORAD_CAT_ID":40965,"ELEMENT_SET_NO":999,"REV_AT_EPOCH":35785,"BSTAR":0.00033304,"MEAN_MOTION_DOT":3.716e-5,"MEAN_MOTION_DDOT":0},{"OBJECT_NAME":"AEROCUBE 7","OBJECT_ID":"2015-058C","EPOCH":"2026-04-25T19:22:41.151072","MEAN_MOTION":14.95283337,"ECCENTRICITY":0.0119517,"INCLINATION":64.7633,"RA_OF_ASC_NODE":48.8255,"ARG_OF_PERICENTER":82.6181,"MEAN_ANOMALY":278.8496,"EPHEMERIS_TYPE":0,"CLASSIFICATION_TYPE":"U","NORAD_CAT_ID":40966,"ELEMENT_SET_NO":999,"REV_AT_EPOCH":35812,"BSTAR":0.00039297,"MEAN_MOTION_DOT":4.831e-5,"MEAN_MOTION_DDOT":0},{"OBJECT_NAME":"FOX-1A (AO-85)","OBJECT_ID":"2015-058D","EPOCH":"2026-04-25T15:01:47.235360","MEAN_MOTION":14.90635436,"ECCENTRICITY":0.0128554,"INCLINATION":64.7745,"RA_OF_ASC_NODE":82.2838,"ARG_OF_PERICENTER":77.1823,"MEAN_ANOMALY":284.3617,"EPHEMERIS_TYPE":0,"CLASSIFICATION_TYPE":"U","NORAD_CAT_ID":40967,"ELEMENT_SET_NO":999,"REV_AT_EPOCH":10573,"BSTAR":0.00030051,"MEAN_MOTION_DOT":3.28e-5,"MEAN_MOTION_DDOT":0},{"OBJECT_NAME":"SINOD-D 1","OBJECT_ID":"2015-058E","EPOCH":"2026-04-25T20:36:09.354240","MEAN_MOTION":14.95454933,"ECCENTRICITY":0.0117076,"INCLINATION":64.7754,"RA_OF_ASC_NODE":62.7291,"ARG_OF_PERICENTER":73.9819,"MEAN_ANOMALY":287.4153,"EPHEMERIS_TYPE":0,"CLASSIFICATION_TYPE":"U","NORAD_CAT_ID":40968,"ELEMENT_SET_NO":999,"REV_AT_EPOCH":10883,"BSTAR":0.00047706,"MEAN_MOTION_DOT":5.9e-5,"MEAN_MOTION_DDOT":0},{"OBJECT_NAME":"SNAP-3 ALICE","OBJECT_ID":"2015-058G","EPOCH":"2026-04-25T19:42:15.954336","MEAN_MOTION":15.50776069,"ECCENTRICITY":0.0031486,"INCLINATION":64.7539,"RA_OF_ASC_NODE":283.5367,"ARG_OF_PERICENTER":44.9461,"MEAN_ANOMALY":315.422,"EPHEMERIS_TYPE":0,"CLASSIFICATION_TYPE":"U","NORAD_CAT_ID":40970,"ELEMENT_SET_NO":999,"REV_AT_EPOCH":10874,"BSTAR":0.001326,"MEAN_MOTION_DOT":0.0007899,"MEAN_MOTION_DDOT":0},{"OBJECT_NAME":"LMRST-SAT","OBJECT_ID":"2015-058H","EPOCH":"2026-04-25T07:11:49.780608","MEAN_MOTION":14.90263003,"ECCENTRICITY":0.0130423,"INCLINATION":64.7753,"RA_OF_ASC_NODE":79.5365,"ARG_OF_PERICENTER":79.3435,"MEAN_ANOMALY":282.2333,"EPHEMERIS_TYPE":0,"CLASSIFICATION_TYPE":"U","NORAD_CAT_ID":40971,"ELEMENT_SET_NO":999,"REV_AT_EPOCH":10567,"BSTAR":0.00030202,"MEAN_MOTION_DOT":3.279e-5,"MEAN_MOTION_DDOT":0},{"OBJECT_NAME":"SNAP-3 EDDIE","OBJECT_ID":"2015-058J","EPOCH":"2026-04-25T18:51:38.028384","MEAN_MOTION":15.51850008,"ECCENTRICITY":0.0032223,"INCLINATION":64.7458,"RA_OF_ASC_NODE":274.7483,"ARG_OF_PERICENTER":48.6199,"MEAN_ANOMALY":311.7705,"EPHEMERIS_TYPE":0,"CLASSIFICATION_TYPE":"U","NORAD_CAT_ID":40972,"ELEMENT_SET_NO":999,"REV_AT_EPOCH":11087,"BSTAR":0.0012483,"MEAN_MOTION_DOT":0.00077332,"MEAN_MOTION_DDOT":0},{"OBJECT_NAME":"PROPCUBE 3","OBJECT_ID":"2015-058K","EPOCH":"2026-04-25T19:10:32.545056","MEAN_MOTION":14.93867862,"ECCENTRICITY":0.0122702,"INCLINATION":64.7694,"RA_OF_ASC_NODE":56.1671,"ARG_OF_PERICENTER":80.7205,"MEAN_ANOMALY":280.7761,"EPHEMERIS_TYPE":0,"CLASSIFICATION_TYPE":"U","NORAD_CAT_ID":40973,"ELEMENT_SET_NO":999,"REV_AT_EPOCH":10697,"BSTAR":0.00035663,"MEAN_MOTION_DOT":4.231e-5,"MEAN_MOTION_DDOT":0},{"OBJECT_NAME":"BISONSAT","OBJECT_ID":"2015-058L","EPOCH":"2026-04-25T20:10:18.341184","MEAN_MOTION":15.15042843,"ECCENTRICITY":0.0077696,"INCLINATION":64.7621,"RA_OF_ASC_NODE":342.7367,"ARG_OF_PERICENTER":70.7327,"MEAN_ANOMALY":290.218,"EPHEMERIS_TYPE":0,"CLASSIFICATION_TYPE":"U","NORAD_CAT_ID":40974,"ELEMENT_SET_NO":999,"REV_AT_EPOCH":10768,"BSTAR":0.00072623,"MEAN_MOTION_DOT":0.00014539,"MEAN_MOTION_DDOT":0},{"OBJECT_NAME":"SNAP-3 JIMI","OBJECT_ID":"2015-058M","EPOCH":"2026-04-25T20:33:14.891904","MEAN_MOTION":15.01706908,"ECCENTRICITY":0.0104783,"INCLINATION":64.7669,"RA_OF_ASC_NODE":25.2708,"ARG_OF_PERICENTER":76.9495,"MEAN_ANOMALY":284.3294,"EPHEMERIS_TYPE":0,"CLASSIFICATION_TYPE":"U","NORAD_CAT_ID":40975,"ELEMENT_SET_NO":999,"REV_AT_EPOCH":10636,"BSTAR":0.0005684,"MEAN_MOTION_DOT":8.172e-5,"MEAN_MOTION_DDOT":0},{"OBJECT_NAME":"PROPCUBE 1 (FLORA)","OBJECT_ID":"2015-058N","EPOCH":"2026-04-25T16:14:03.066432","MEAN_MOTION":14.88907559,"ECCENTRICITY":0.0129294,"INCLINATION":64.7733,"RA_OF_ASC_NODE":97.9403,"ARG_OF_PERICENTER":81.4628,"MEAN_ANOMALY":280.111,"EPHEMERIS_TYPE":0,"CLASSIFICATION_TYPE":"U","NORAD_CAT_ID":40976,"ELEMENT_SET_NO":999,"REV_AT_EPOCH":10844,"BSTAR":0.00026757,"MEAN_MOTION_DOT":2.77e-5,"MEAN_MOTION_DDOT":0},{"OBJECT_NAME":"SINOD-D 3","OBJECT_ID":"2015-058P","EPOCH":"2026-04-25T21:19:14.494080","MEAN_MOTION":14.93586701,"ECCENTRICITY":0.0117748,"INCLINATION":64.772,"RA_OF_ASC_NODE":79.0775,"ARG_OF_PERICENTER":78.9746,"MEAN_ANOMALY":282.4584,"EPHEMERIS_TYPE":0,"CLASSIFICATION_TYPE":"U","NORAD_CAT_ID":40977,"ELEMENT_SET_NO":999,"REV_AT_EPOCH":10694,"BSTAR":0.00044285,"MEAN_MOTION_DOT":5.197e-5,"MEAN_MOTION_DDOT":0}]
